{
    "links": {
        "self": "http://www.neowsapp.com/rest/v1/neo/3605539?api_key=iIulBulltgU6a56xZRHN4H3l9WmuAYTsLGpBGhQ2"
    },
    "id": "3605539",
    "neo_reference_id": "3605539",
    "name": "(2012 LJ)",
    "designation": "2012 LJ",
    "nasa_jpl_url": "http://ssd.jpl.nasa.gov/sbdb.cgi?sstr=3605539",
    "absolute_magnitude_h": 25.6,
    "estimated_diameter": {
        "kilometers": {
            "estimated_diameter_min": 0.0201629919,
            "estimated_diameter_max": 0.0450858206
        },
        "meters": {
            "estimated_diameter_min": 20.1629919443,
            "estimated_diameter_max": 45.0858206172
        },
        "miles": {
            "estimated_diameter_min": 0.0125286985,
            "estimated_diameter_max": 0.0280150214
        },
        "feet": {
            "estimated_diameter_min": 66.1515504905,
            "estimated_diameter_max": 147.9193637137
        }
    },
    "is_potentially_hazardous_asteroid": false,
    "close_approach_data": [
        {
            "close_approach_date": "2012-06-10",
            "close_approach_date_full": "2012-Jun-10 18:44",
            "epoch_date_close_approach": 1339353840000,
            "relative_velocity": {
                "kilometers_per_second": "18.8469988678",
                "kilometers_per_hour": "67849.1959239072",
                "miles_per_hour": "42158.8517672744"
            },
            "miss_distance": {
                "astronomical": "0.0041780615",
                "lunar": "1.6252659235",
                "kilometers": "625029.101129005",
                "miles": "388375.074250069"
            },
            "orbiting_body": "Earth"
        },
        {
            "close_approach_date": "2012-06-10",
            "close_approach_date_full": "2012-Jun-10 18:47",
            "epoch_date_close_approach": 1339354020000,
            "relative_velocity": {
                "kilometers_per_second": "17.8478810728",
                "kilometers_per_hour": "64252.3718622517",
                "miles_per_hour": "39923.925171853"
            },
            "miss_distance": {
                "astronomical": "0.0043987601",
                "lunar": "1.7111176789",
                "kilometers": "658045.141600987",
                "miles": "408890.2904961406"
            },
            "orbiting_body": "Moon"
        },
        {
            "close_approach_date": "2012-07-23",
            "close_approach_date_full": "2012-Jul-23 22:02",
            "epoch_date_close_approach": 1343080920000,
            "relative_velocity": {
                "kilometers_per_second": "11.4805820473",
                "kilometers_per_hour": "41330.0953702951",
                "miles_per_hour": "25680.9139816148"
            },
            "miss_distance": {
                "astronomical": "0.0548590755",
                "lunar": "21.3401803695",
                "kilometers": "8206800.844969185",
                "miles": "5099469.579517353"
            },
            "orbiting_body": "Venus"
        }
    ],
    "orbital_data": {
        "orbit_id": "7",
        "orbit_determination_date": "2019-07-19 05:25:40",
        "first_observation_date": "2012-06-09",
        "last_observation_date": "2012-06-10",
        "data_arc_in_days": 1,
        "observations_used": 57,
        "orbit_uncertainty": "7",
        "minimum_orbit_intersection": ".00219248",
        "jupiter_tisserand_invariant": "3.194",
        "epoch_osculation": "2459000.5",
        "eccentricity": ".6989194557362253",
        "semi_major_axis": "2.325078017485234",
        "inclination": ".6875910905282602",
        "ascending_node_longitude": "239.0610690628559",
        "orbital_period": "1294.955134832586",
        "perihelion_distance": ".7000357549601924",
        "perihelion_argument": "96.31729155081591",
        "aphelion_distance": "3.950120280010275",
        "perihelion_time": "2458723.056868573545",
        "mean_anomaly": "77.12972027130213",
        "mean_motion": ".2780019093453314",
        "equinox": "J2000",
        "orbit_class": {
            "orbit_class_type": "APO",
            "orbit_class_description": "Near-Earth asteroid orbits which cross the Earth’s orbit similar to that of 1862 Apollo",
            "orbit_class_range": "a (semi-major axis) > 1.0 AU; q (perihelion) < 1.017 AU"
        }
    },
    "is_sentry_object": false
}